OBJECT_NAME,OBJECT_ID,EPOCH,MEAN_MOTION,ECCENTRICITY,INCLINATION,RA_OF_ASC_NODE,ARG_OF_PERICENTER,MEAN_ANOMALY,EPHEMERIS_TYPE,CLASSIFICATION_TYPE,NORAD_CAT_ID,ELEMENT_SET_NO,REV_AT_EPOCH,BSTAR,MEAN_MOTION_DOT,MEAN_MOTION_DDOT
DTUSAT-2,2014-033W,2026-06-26T22:42:57.629376,15.15135070,.0007657,98.0863,176.2936,189.0308,171.0786,0,U,40030,999,65416,.42437E-3,.7887E-4,0
QB50P2,2014-033Y,2026-06-26T22:33:24.164928,15.15279708,.0008808,98.0751,175.4276,134.4942,225.7010,0,U,40032,999,65414,.42349E-3,.7905E-4,0
PERSEUS-M1,2014-033AF,2026-06-27T01:42:53.873568,14.95665219,.0009804,97.9648,122.3656,264.1554,95.8549,0,U,40039,999,65211,.17656E-3,.1904E-4,0
POLYITAN-1,2014-033AJ,2026-06-27T00:52:25.227840,15.33595602,.0008865,98.0939,205.2302,114.7933,245.4230,0,U,40042,999,65510,.62898E-3,.20395E-3,0
TIGRISAT,2014-033AK,2026-06-27T03:42:24.868800,14.85196626,.0050094,97.7841,327.9382,43.2551,317.2581,0,U,40043,999,64710,.21812E-3,.1856E-4,0
CANX-4,2014-034C,2026-06-27T05:12:17.371008,14.81281845,.0012394,98.3111,53.8976,345.1677,14.9169,0,U,40055,999,64601,.12806E-3,.942E-5,0
CANX-5,2014-034D,2026-06-27T05:09:51.914016,14.81299077,.0012392,98.3113,53.9400,345.4382,14.6471,0,U,40056,999,63682,.12736E-3,.937E-5,0
GONETS-M 10,2014-036C,2026-06-27T03:10:15.503232,12.42945891,.0022926,82.5115,301.4968,119.8122,240.5241,0,U,40063,999,54348,-.27468E-3,-.28E-6,0
METEOR-M 2,2014-037A,2026-06-27T05:04:22.226304,14.21464558,.0006268,98.5111,153.5947,19.1342,341.0070,0,U,40069,999,62074,.16394E-3,.316E-5,0
DX1,2014-037C,2026-06-27T03:59:06.923040,14.90013230,.0005895,98.3862,140.4732,235.1116,124.9546,0,U,40071,999,64759,.21759E-3,.2037E-4,0
UKUBE-1,2014-037F,2026-06-26T22:51:09.387072,15.13699275,.0003059,98.4236,182.2506,116.7089,243.4453,0,U,40074,999,65003,.50852E-3,.9082E-4,0
GAOFEN-2,2014-049A,2026-06-27T04:13:55.358688,14.80907438,.0006795,98.0111,242.3739,190.2060,169.9015,0,U,40118,999,64071,.30697E-4,.184E-5,0
BRITE-PL2 (HEWELIUSZ),2014-049B,2026-06-27T05:09:02.108736,14.94630549,.0015339,97.9107,290.2923,77.8705,282.4232,0,U,40119,999,64294,.16618E-3,.1744E-4,0
CBERS 4,2014-079A,2026-06-27T05:07:42.612096,14.35511226,.0001536,98.3533,234.7307,54.1749,305.9580,0,U,40336,999,60539,.66172E-5,-.23E-6,0
SMAP,2015-003A,2026-06-27T03:08:54.803040,14.63374836,.0001436,98.1276,185.0848,98.4514,261.6851,0,U,40376,999,60907,.94346E-4,.441E-5,0
GONETS-M 11,2015-020A,2026-06-27T03:37:31.310976,12.42878134,.0016168,82.4869,24.7825,344.2167,15.8407,0,U,40552,999,50997,.19137E-2,.275E-5,0
GONETS-M 12,2015-020B,2026-06-27T04:55:06.419424,12.42891622,.0014854,82.4903,25.8754,328.8863,31.1336,0,U,40553,999,50997,.56996E-3,.89E-6,0
GONETS-M 13,2015-020C,2026-06-27T04:17:09.741408,12.42871094,.0013186,82.4865,24.5039,313.6592,46.3394,0,U,40554,999,50994,.24048E-3,.43E-6,0
DMC3-FM1,2015-032A,2026-06-27T04:08:53.629152,14.85748690,.0006441,97.6456,42.9559,33.0949,327.0668,0,U,40715,999,59139,.97823E-4,.798E-5,0
DMC3-FM2,2015-032B,2026-06-27T04:40:35.455584,14.85757608,.0007101,97.6512,44.5577,37.5622,322.6088,0,U,40716,999,59139,.16594E-3,.139E-4,0
DMC3-FM3,2015-032C,2026-06-27T05:14:16.921824,14.85745192,.0006372,97.6565,46.3397,38.0593,322.1072,0,U,40717,999,59140,.79413E-4,.638E-5,0
CARBONITE 1 (CBNT-1),2015-032D,2026-06-27T03:56:42.614304,14.83614095,.0012959,97.6509,355.8131,261.8077,98.1668,0,U,40718,999,59082,.18251E-3,.1456E-4,0
LILACSAT-2,2015-049K,2026-06-27T03:20:59.044128,15.51765050,.000646,97.4638,215.3605,201.3258,158.7726,0,U,40908,999,59729,.31484E-3,.18715E-3,0
COSMOS 2507 (RODNIK-S 13),2015-050A,2026-06-27T05:07:29.435232,12.42926913,.000976,82.4926,73.4277,335.2011,24.8598,0,U,40920,999,48810,.14257E-3,.3E-6,0
COSMOS 2508 (RODNIK-S 14),2015-050B,2026-06-27T04:02:51.608832,12.42914301,.0014771,82.4878,71.9570,6.0987,354.0270,0,U,40921,999,48808,.39377E-5,.1E-6,0
COSMOS 2509 (RODNIK-S 15),2015-050C,2026-06-27T04:32:30.158880,12.42883907,.0015429,82.4886,72.0475,22.4797,337.6955,0,U,40922,999,48812,.18747E-3,.36E-6,0
